0 INTELSAT 508
1 14786U 84023A   13281.35985282 -.00000076  00000-0  10000-3 0  9617
2 14786 015.3335 018.7824 0023499 096.4796 263.7911 00.97291595 70155
0 INTELSAT 508
1 14786U 84023A   13287.52656153 -.00000190  00000-0  10000-3 0  9633
2 14786 015.3397 018.7179 0023441 096.7265 263.5306 00.97293437 70217
0 INTELSAT 508
1 14786U 84023A   13292.66546036 -.00000120  00000-0  10000-3 0  9646
2 14786 015.3449 018.6642 0023485 096.4725 263.7686 00.97291881 70264
0 INTELSAT 508
1 14786U 84023A   13293.69327166 -.00000095  00000-0  10000-3 0  9653
2 14786 015.3462 018.6545 0022934 097.6145 262.6192 00.97291378 70270
0 INTELSAT 508
1 14786U 84023A   13294.72109774 -.00000075  00000-0  10000-3 0  9660
2 14786 015.3472 018.6439 0022640 097.9574 262.2800 00.97291051 70287
